0 COSMOS 909
1 10010U 77036A   13281.85722538 -.00000018  00000-0  13271-3 0  2237
2 10010 065.8620 109.5825 0699268 055.5168 310.9863 12.30325680635038
0 COSMOS 909
1 10010U 77036A   13283.97065685 -.00000029  00000-0  92243-4 0  2245
2 10010 065.8620 105.5191 0699340 054.6910 311.7446 12.30326165635299
0 COSMOS 909
1 10010U 77036A   13286.49051653 -.00000060  00000-0 -25824-4 0  2253
2 10010 065.8624 100.6742 0699439 053.7054 312.6484 12.30326334635604
0 COSMOS 909
1 10010U 77036A   13288.76651835 -.00000106  00000-0 -19776-3 0  2263
2 10010 065.8629 096.2981 0699477 052.8151 313.4627 12.30326657635880
0 COSMOS 909
1 10010U 77036A   13291.44894767 -.00000063  00000-0 -35785-4 0  2277
2 10010 065.8636 091.1410 0699626 051.7668 314.4208 12.30326206636210
0 COSMOS 909
1 10010U 77036A   13293.48109175 -.00000071  00000-0 -66175-4 0  2282
2 10010 065.8639 087.2342 0699701 050.9727 315.1451 12.30326195636466
0 COSMOS 909
1 10010U 77036A   13295.51323554 -.00000082  00000-0 -10478-3 0  2294
2 10010 065.8645 083.3261 0699886 050.1726 315.8745 12.30326176636715
